$$SOE
2460728.500000000, A.D. 2025-Feb-22 00:00:00.0000, 3.330083345624179E+09, 5.973250892160923E+09, -6.451065763423061E+07,
2460735.500000000, A.D. 2025-Mar-01 00:00:00.0000, 3.327712987250005E+09, 5.974470467493829E+09, -6.444025067292690E+07,
2460742.500000000, A.D. 2025-Mar-08 00:00:00.0000, 3.325342119719419E+09, 5.975689045434528E+09, -6.436983376195121E+07,
2460749.500000000, A.D. 2025-Mar-15 00:00:00.0000, 3.322970747794517E+09, 5.976906627760630E+09, -6.429940722804093E+07,
2460756.500000000, A.D. 2025-Mar-22 00:00:00.0000, 3.320598875066836E+09, 5.978123218392448E+09, -6.422897114945221E+07,
2460763.500000000, A.D. 2025-Mar-29 00:00:00.0000, 3.318226503096285E+09, 5.979338821560884E+09, -6.415852542082858E+07,
2460770.500000000, A.D. 2025-Apr-05 00:00:00.0000, 3.315853632244648E+09, 5.980553440858998E+09, -6.408806990048718E+07,
2460777.500000000, A.D. 2025-Apr-12 00:00:00.0000, 3.313480262277710E+09, 5.981767079281531E+09, -6.401760445526934E+07,
2460784.500000000, A.D. 2025-Apr-19 00:00:00.0000, 3.311106392548809E+09, 5.982979739371256E+09, -6.394712895811081E+07,
2460791.500000000, A.D. 2025-Apr-26 00:00:00.0000, 3.308732022035470E+09, 5.984191423269505E+09, -6.387664328009629E+07,
2460798.500000000, A.D. 2025-May-03 00:00:00.0000, 3.306357149342809E+09, 5.985402132690396E+09, -6.380614728607512E+07,
2460805.500000000, A.D. 2025-May-10 00:00:00.0000, 3.303981772702271E+09, 5.986611868827801E+09, -6.373564083594036E+07,
2460812.500000000, A.D. 2025-May-17 00:00:00.0000, 3.301605890002475E+09, 5.987820632154341E+09, -6.366512379843187E+07,
2460819.500000000, A.D. 2025-May-24 00:00:00.0000, 3.299229499026042E+09, 5.989028422058206E+09, -6.359459609794402E+07,
2460826.500000000, A.D. 2025-May-31 00:00:00.0000, 3.296852598310207E+09, 5.990235236629055E+09, -6.352405780730700E+07,
2460833.500000000, A.D. 2025-Jun-07 00:00:00.0000, 3.294475188230274E+09, 5.991441073798001E+09, -6.345350915132356E+07,
2460840.500000000, A.D. 2025-Jun-14 00:00:00.0000, 3.292097269941344E+09, 5.992645933165023E+09, -6.338295025867462E+07,
2460847.500000000, A.D. 2025-Jun-21 00:00:00.0000, 3.289718843395104E+09, 5.993849815242634E+09, -6.331238104113030E+07,
2460854.500000000, A.D. 2025-Jun-28 00:00:00.0000, 3.287339907559853E+09, 5.995052719880657E+09, -6.324180134270906E+07,
2460861.500000000, A.D. 2025-Jul-05 00:00:00.0000, 3.284960461327056E+09, 5.996254646028743E+09, -6.317121104343128E+07,
2460868.500000000, A.D. 2025-Jul-12 00:00:00.0000, 3.282580503913432E+09, 5.997455592031441E+09, -6.310061007416201E+07,
2460875.500000000, A.D. 2025-Jul-19 00:00:00.0000, 3.280200034948120E+09, 5.998655555880885E+09, -6.302999840685201E+07,
2460882.500000000, A.D. 2025-Jul-26 00:00:00.0000, 3.277819054454894E+09, 5.999854535370716E+09, -6.295937604399490E+07,
2460889.500000000, A.D. 2025-Aug-02 00:00:00.0000, 3.275437562794768E+09, 6.001052528172992E+09, -6.288874301139593E+07,
2460896.500000000, A.D. 2025-Aug-09 00:00:00.0000, 3.273055560592453E+09, 6.002249531823736E+09, -6.281809935746384E+07,
2460903.500000000, A.D. 2025-Aug-16 00:00:00.0000, 3.270673048723568E+09, 6.003445543554133E+09, -6.274744517106891E+07,
2460910.500000000, A.D. 2025-Aug-23 00:00:00.0000, 3.268290028655272E+09, 6.004640559984148E+09, -6.267678064326763E+07,
2460917.500000000, A.D. 2025-Aug-30 00:00:00.0000, 3.265906503469211E+09, 6.005834577392838E+09, -6.260610614445257E+07,
2460924.500000000, A.D. 2025-Sep-06 00:00:00.0000, 3.263522478148690E+09, 6.007027593565827E+09, -6.253542210488486E+07,
2460931.500000000, A.D. 2025-Sep-13 00:00:00.0000, 3.261137957459292E+09, 6.008219608737230E+09, -6.246472874800539E+07,
2460938.500000000, A.D. 2025-Sep-20 00:00:00.0000, 3.258752944696182E+09, 6.009410623981735E+09, -6.239402611089230E+07,
2460945.500000000, A.D. 2025-Sep-27 00:00:00.0000, 3.256367442356643E+09, 6.010600640168590E+09, -6.232331419443822E+07,
2460952.500000000, A.D. 2025-Oct-04 00:00:00.0000, 3.253981452721159E+09, 6.011789658016895E+09, -6.225259301405931E+07,
2460959.500000000, A.D. 2025-Oct-11 00:00:00.0000, 3.251594977969377E+09, 6.012977678309391E+09, -6.218186259359360E+07,
2460966.500000000, A.D. 2025-Oct-18 00:00:00.0000, 3.249208020114632E+09, 6.014164701990579E+09, -6.211112295081758E+07,
2460973.500000000, A.D. 2025-Oct-25 00:00:00.0000, 3.246820580896546E+09, 6.015350730160498E+09, -6.204037408649063E+07,
2460980.500000000, A.D. 2025-Nov-01 00:00:00.0000, 3.244432661671124E+09, 6.016535763980085E+09, -6.196961597940016E+07,
2460987.500000000, A.D. 2025-Nov-08 00:00:00.0000, 3.242044263332839E+09, 6.017719804457137E+09, -6.189884859328938E+07,
2460994.500000000, A.D. 2025-Nov-15 00:00:00.0000, 3.239655386416534E+09, 6.018902852054756E+09, -6.182807191420078E+07,
2461001.500000000, A.D. 2025-Nov-22 00:00:00.0000, 3.237266031781762E+09, 6.020084906342912E+09, -6.175728603742456E+07,
2461008.500000000, A.D. 2025-Nov-29 00:00:00.0000, 3.234876201726300E+09, 6.021265966828483E+09, -6.168649119743657E+07,
2461015.500000000, A.D. 2025-Dec-06 00:00:00.0000, 3.232485899251365E+09, 6.022446034828190E+09, -6.161568754325771E+07,
2461022.500000000, A.D. 2025-Dec-13 00:00:00.0000, 3.230095125912148E+09, 6.023625113014451E+09, -6.154487497461152E+07,
2461029.500000000, A.D. 2025-Dec-20 00:00:00.0000, 3.227703881746822E+09, 6.024803203657666E+09, -6.147405327577925E+07,
2461036.500000000, A.D. 2025-Dec-27 00:00:00.0000, 3.225312166210193E+09, 6.025980308156664E+09, -6.140322223695278E+07,
2461043.500000000, A.D. 2026-Jan-03 00:00:00.0000, 3.222919978652784E+09, 6.027156427242292E+09, -6.133238167958260E+07,
2461050.500000000, A.D. 2026-Jan-10 00:00:00.0000, 3.220527318455120E+09, 6.028331561175954E+09, -6.126153145123720E+07,
2461057.500000000, A.D. 2026-Jan-17 00:00:00.0000, 3.218134185049747E+09, 6.029505709852313E+09, -6.119067141870689E+07,
2461064.500000000, A.D. 2026-Jan-24 00:00:00.0000, 3.215740577908957E+09, 6.030678872829753E+09, -6.111980146457863E+07,
2461071.500000000, A.D. 2026-Jan-31 00:00:00.0000, 3.213346496521666E+09, 6.031851049282067E+09, -6.104892148990679E+07,
2461078.500000000, A.D. 2026-Feb-07 00:00:00.0000, 3.210951940420942E+09, 6.033022237815003E+09, -6.097803143322039E+07,
2461085.500000000, A.D. 2026-Feb-14 00:00:00.0000, 3.208556909515274E+09, 6.034192436133210E+09, -6.090713133019924E+07,
2461092.500000000, A.D. 2026-Feb-21 00:00:00.0000, 3.206161405111115E+09, 6.035361641135456E+09, -6.083622140232325E+07,
2461099.500000000, A.D. 2026-Feb-28 00:00:00.0000, 3.203765430541877E+09, 6.036529850592165E+09, -6.076530198061275E+07,
2461106.500000000, A.D. 2026-Mar-07 00:00:00.0000, 3.201368989344813E+09, 6.037697064455673E+09, -6.069437323496008E+07,
2461113.500000000, A.D. 2026-Mar-14 00:00:00.0000, 3.198972083761523E+09, 6.038863283470622E+09, -6.062343515415764E+07,
2461120.500000000, A.D. 2026-Mar-21 00:00:00.0000, 3.196574715344926E+09, 6.040028507982541E+09, -6.055248770324135E+07,
2461127.500000000, A.D. 2026-Mar-28 00:00:00.0000, 3.194176885663348E+09, 6.041192737973310E+09, -6.048153088963842E+07,
2461134.500000000, A.D. 2026-Apr-04 00:00:00.0000, 3.191778596497953E+09, 6.042355973357843E+09, -6.041056476152229E+07,
2461141.500000000, A.D. 2026-Apr-11 00:00:00.0000, 3.189379849807502E+09, 6.043518214182057E+09, -6.033958939272785E+07,
2461148.500000000, A.D. 2026-Apr-18 00:00:00.0000, 3.186980647619785E+09, 6.044679460715384E+09, -6.026860486917019E+07,
2461155.500000000, A.D. 2026-Apr-25 00:00:00.0000, 3.184580991895831E+09, 6.045839713452536E+09, -6.019761127958870E+07,
2461162.500000000, A.D. 2026-May-02 00:00:00.0000, 3.182180884397899E+09, 6.046998972994901E+09, -6.012660871564054E+07,
2461169.500000000, A.D. 2026-May-09 00:00:00.0000, 3.179780326686252E+09, 6.048157239745331E+09, -6.005559729802322E+07,
2461176.500000000, A.D. 2026-May-16 00:00:00.0000, 3.177379320623014E+09, 6.049314513554709E+09, -5.998457725187159E+07,
2461183.500000000, A.D. 2026-May-23 00:00:00.0000, 3.174977869435260E+09, 6.050470794342689E+09, -5.991354895254087E+07,
2461190.500000000, A.D. 2026-May-30 00:00:00.0000, 3.172575977259064E+09, 6.051626084012197E+09, -5.984251272503424E+07,
2461197.500000000, A.D. 2026-Jun-06 00:00:00.0000, 3.170173646847324E+09, 6.052780386384174E+09, -5.977146863556337E+07,
2461204.500000000, A.D. 2026-Jun-13 00:00:00.0000, 3.167770879107386E+09, 6.053933705351504E+09, -5.970041659535360E+07,
2461211.500000000, A.D. 2026-Jun-20 00:00:00.0000, 3.165367673967420E+09, 6.055086044178285E+09, -5.962935649180698E+07,
2461218.500000000, A.D. 2026-Jun-27 00:00:00.0000, 3.162964030873223E+09, 6.056237405604600E+09, -5.955828821927166E+07,
2461225.500000000, A.D. 2026-Jul-04 00:00:00.0000, 3.160559948915322E+09, 6.057387791981964E+09, -5.948721167302990E+07,
2461232.500000000, A.D. 2026-Jul-11 00:00:00.0000, 3.158155426840278E+09, 6.058537205307528E+09, -5.941612674081373E+07,
2461239.500000000, A.D. 2026-Jul-18 00:00:00.0000, 3.155750463038920E+09, 6.059685647182906E+09, -5.934503329855537E+07,
2461246.500000000, A.D. 2026-Jul-25 00:00:00.0000, 3.153345055535923E+09, 6.060833118700359E+09, -5.927393121258593E+07,
2461253.500000000, A.D. 2026-Aug-01 00:00:00.0000, 3.150939202028791E+09, 6.061979620208302E+09, -5.920282035684299E+07,
2461260.500000000, A.D. 2026-Aug-08 00:00:00.0000, 3.148532900191105E+09, 6.063125150920345E+09, -5.913170066786385E+07,
2461267.500000000, A.D. 2026-Aug-15 00:00:00.0000, 3.146126148654974E+09, 6.064269708818381E+09, -5.906057223892164E+07,
2461274.500000000, A.D. 2026-Aug-22 00:00:00.0000, 3.143718947911569E+09, 6.065413292071127E+09, -5.898943528375483E+07,
2461281.500000000, A.D. 2026-Aug-29 00:00:00.0000, 3.141311298840500E+09, 6.066555900595603E+09, -5.891828987214518E+07,
2461288.500000000, A.D. 2026-Sep-05 00:00:00.0000, 3.138903201001583E+09, 6.067697534893522E+09, -5.884713586742496E+07,
2461295.500000000, A.D. 2026-Sep-12 00:00:00.0000, 3.136494653143810E+09, 6.068838194658431E+09, -5.877597308711624E+07,
$$EOE